NORAD_CAT_ID,OBJECT_NAME,OBJECT_TYPE,EPOCH,MEAN_MOTION,ECCENTRICITY,INCLINATION,RA_OF_ASC_NODE,ARG_OF_PERICENTER,MEAN_ANOMALY,BSTAR,MEAN_MOTION_DOT,MEAN_MOTION_DDOT,TLE_LINE0,TLE_LINE1,TLE_LINE2,SEMIMAJOR_AXIS,PERIOD,APOGEE,PERIGEE,DECAYED
50205.0,STARLINK-3260,PAYLOAD,2021-12-23 16:00:00,16.04378807,0.0085613999999999,53.22,341.4195,172.19,65.514,0.00044046,0.00487919,1.1377e-05,0 STARLINK-3260,1 50205U 21125BB  21357.66667824  .00487919  11377-4  44046-3 0  9998,2 50205  53.2200 341.4195 0085614 172.1900  65.5140 16.04378807  3623,6640.446,89.75399999999998,319.1620000000001,205.459,0.0
50205.0,STARLINK-3260,PAYLOAD,2021-12-24 06:00:00,16.04980335,0.0083972,53.2199,338.3978,174.1795,195.3242,0.00045713,0.0052002,1.1389e-05,0 STARLINK-3260,1 50205U 21125BB  21358.25001157  .00520020  11389-4  45713-3 0  9991,2 50205  53.2199 338.3978 0083972 174.1795 195.3242 16.04980335  3713,6638.786,89.721,316.399,204.904,0.0
50205.0,STARLINK-3260,PAYLOAD,2021-12-24 14:00:01,16.0538978,0.0082945,53.2198,336.6685,175.3818,321.462,0.00046802,0.00542765,1.1397e-05,0 STARLINK-3260,1 50205U 21125BB  21358.58334491  .00542765  11397-4  46802-3 0  9996,2 50205  53.2198 336.6685 0082945 175.3818 321.4620 16.05389780  3761,6637.658,89.698,314.579,204.467,0.0
50205.0,STARLINK-3260,PAYLOAD,2021-12-24 22:00:00,16.05744787,0.0082264,53.2196,334.9372,176.4896,88.1366,0.00054447,0.00644203,1.14e-05,0 STARLINK-3260,1 50205U 21125BB  21358.91667824  .00644203  11400-4  54447-3 0  9991,2 50205  53.2196 334.9372 0082264 176.4896  88.1366 16.05744787  1477,6636.679,89.678,313.14,203.948,0.0
50205.0,STARLINK-3260,PAYLOAD,2021-12-25 06:00:00,16.06039535,0.0081306,53.2192,333.2092,177.6062,215.1068,0.00046091,0.00550984,1.1412e-05,0 STARLINK-3260,1 50205U 21125BB  21359.25001157  .00550984  11412-4  46091-3 0  9991,2 50205  53.2192 333.2092 0081306 177.6062 215.1068 16.06039535  3874,6635.8669999999975,89.662,311.686,203.779,0.0
50205.0,STARLINK-3260,PAYLOAD,2021-12-25 14:00:01,16.06470854,0.0080318,53.2189,331.4767,178.8031,342.5239,0.00048169,0.00588524,1.142e-05,0 STARLINK-3260,1 50205U 21125BB  21359.58334491  .00588524  11420-4  48169-3 0  9995,2 50205  53.2189 331.4767 0080318 178.8031 342.5239 16.06470854  3924,6634.679,89.637,309.833,203.256,0.0
50205.0,STARLINK-3260,PAYLOAD,2021-12-25 22:00:00,16.06785525,0.0079752,53.2191,329.7428,179.8901,110.462,0.00049617,0.00617093,1.1426e-05,0 STARLINK-3260,1 50205U 21125BB  21359.91667824  .00617093  11426-4  49617-3 0  9990,2 50205  53.2191 329.7428 0079752 179.8901 110.4620 16.06785525  3984,6633.813,89.62,308.584,202.772,0.0
50205.0,STARLINK-3260,PAYLOAD,2021-12-26 06:00:02,16.07263204,0.0078285,53.2186,328.0118,181.0137,239.0046,0.00055099,0.00699325,1.1433e-05,0 STARLINK-3260,1 50205U 21125BB  21360.25002315  .00699325  11433-4  55099-3 0  9994,2 50205  53.2186 328.0118 0078285 181.0137 239.0046 16.07263204  4035,6632.499,89.59299999999998,306.286,202.441,0.0
50205.0,STARLINK-3260,PAYLOAD,2021-12-26 14:00:01,16.07599954,0.0077685,53.2179,326.2765,182.2173,7.6735,0.00042499,0.00548965,1.1448e-05,0 STARLINK-3260,1 50205U 21125BB  21360.58334491  .00548965  11448-4  42499-3 0  9992,2 50205  53.2179 326.2765 0077685 182.2173   7.6735 16.07599954  4084,6631.571999999999,89.575,304.955,201.92,0.0
50205.0,STARLINK-3260,PAYLOAD,2021-12-26 22:00:00,16.07980374,0.0076978,53.2182,324.5397,183.3492,137.0429,0.00047017,0.00620813,1.1454e-05,0 STARLINK-3260,1 50205U 21125BB  21360.91667824  .00620813  11454-4  47017-3 0  9999,2 50205  53.2182 324.5397 0076978 183.3492 137.0429 16.07980374  4145,6630.526,89.553,303.432,201.351,0.0
50205.0,STARLINK-3260,PAYLOAD,2021-12-27 06:00:00,16.08384827,0.0075696,53.218,322.8057,184.5283,266.8393,0.00047206,0.00633742,1.1463e-05,0 STARLINK-3260,1 50205U 21125BB  21361.25001157  .00633742  11463-4  47206-3 0  9993,2 50205  53.2180 322.8057 0075696 184.5283 266.8393 16.08384827  4192,6629.415,89.531,301.462,201.098,0.0
50205.0,STARLINK-3260,PAYLOAD,2021-12-27 12:00:00,16.08733114,0.0074971,53.2172,321.5022,185.4754,274.4165,0.00046702,0.00638843,1.1471e-05,0 STARLINK-3260,1 50205U 21125BB  21361.50001157  .00638843  11471-4  46702-3 0  9997,2 50205  53.2172 321.5022 0074971 185.4754 274.4165 16.08733114  4233,6628.458000000001,89.51100000000002,300.017,200.629,0.0
50205.0,STARLINK-3260,PAYLOAD,2021-12-27 14:00:01,16.08758717,0.0075095,53.2173,321.0671,185.7162,37.0332,0.00036223,0.00496402,1.1479e-05,0 STARLINK-3260,1 50205U 21125BB  21361.58334491  .00496402  11479-4  36223-3 0  9993,2 50205  53.2173 321.0671 0075095 185.7162  37.0332 16.08758717  1909,6628.388000000001,89.51,300.029,200.477,0.0
50205.0,STARLINK-3260,PAYLOAD,2021-12-27 22:00:00,16.09106651,0.0074441999999999,53.2175,319.3281,186.8724,167.7291,0.00039935,0.00558566,1.1484e-05,0 STARLINK-3260,1 50205U 21125BB  21361.91667824  .00558566  11484-4  39935-3 0  9998,2 50205  53.2175 319.3281 0074442 186.8724 167.7291 16.09106651  4306,6627.432,89.491,298.633,199.961,0.0
50205.0,STARLINK-3260,PAYLOAD,2021-12-28 06:00:00,16.09701984,0.0072711,53.2174,317.5904,188.159,299.0708,0.00053221,0.00765829,1.1489e-05,0 STARLINK-3260,1 50205U 21125BB  21362.25001157  .00765829  11489-4  53221-3 0  9998,2 50205  53.2174 317.5904 0072711 188.1590 299.0708 16.09701984  4357,6625.7980000000025,89.458,295.84,199.486,0.0
50205.0,STARLINK-3260,PAYLOAD,2021-12-28 12:00:00,16.101407899999998,0.0071841,53.2167,316.284,189.1259,307.8582,0.00054972,0.00810886,1.1498e-05,0 STARLINK-3260,1 50205U 21125BB  21362.50001157  .00810886  11498-4  54972-3 0  9994,2 50205  53.2167 316.2840 0071841 189.1259 307.8582 16.10140790  4396,6624.594,89.43299999999998,294.051,198.867,0.0
50205.0,STARLINK-3260,PAYLOAD,2021-12-29 21:41:25,16.09859736,0.0061803,53.217,308.947,195.2921,164.6249,-0.00015159,-0.00201007,1.1533e-05,0 STARLINK-3260,1 50205U 21125BB  21363.90376623 -.00201007  11533-4 -15159-3 0  9997,2 50205  53.2170 308.9470 0061803 195.2921 164.6249 16.09859736  5102,6625.365,89.449,288.177,206.283,0.0
50205.0,STARLINK-3260,PAYLOAD,2021-12-30 02:09:40,16.09542704,0.0059215,53.2171,307.9748,196.2589,163.6549,-0.00015073,-0.00190607,1.1524e-05,0 STARLINK-3260,1 50205U 21125BB  21364.09005469 -.00190607  11524-4 -15073-3 0  9993,2 50205  53.2171 307.9748 0059215 196.2589 163.6549 16.09542704  4650,6626.235,89.46600000000002,287.337,208.863,0.0
50205.0,STARLINK-3260,PAYLOAD,2021-12-30 08:07:24,16.09380492,0.0056806,53.2171,306.6790000000001,197.7798,162.1251,0.0002071,0.00244697,1.1502e-05,0 STARLINK-3260,1 50205U 21125BB  21364.33847468  .00244697  11502-4  20710-3 0  9990,2 50205  53.2171 306.6790 0056806 197.7798 162.1251 16.09380492  5170,6626.68,89.475,286.189,210.902,0.0
50205.0,STARLINK-3260,PAYLOAD,2021-12-31 03:30:49,16.07767873,0.0047283,53.217,302.4708,202.297,157.601,-0.0001252,-0.00127809,1.7861e-05,0 STARLINK-3260,1 50205U 21125BB  21365.14640240 -.00127809  17861-4 -12520-3 0  9990,2 50205  53.2170 302.4708 0047283 202.2970 157.6010 16.07767873  4828,6631.111,89.565,284.33,221.622,0.0
50205.0,STARLINK-3260,PAYLOAD,2021-12-31 06:29:54,16.07440632,0.0045911,53.2168,301.8237,202.6568,157.2441,-0.00029275,-0.00284789,4.301100000000001e-05,0 STARLINK-3260,1 50205U 21125BB  21365.27076648 -.00284789  43011-4 -29275-3 0  9991,2 50205  53.2168 301.8237 0045911 202.6568 157.2441 16.07440632  5329,6632.011,89.583,284.324,223.427,0.0
50205.0,STARLINK-3260,PAYLOAD,2021-12-31 19:56:02,16.06809986,0.0041518,53.2167,298.9139,204.0639,155.8457,0.00028005,0.00247106,3.9422e-05,0 STARLINK-3260,1 50205U 21125BB  21365.83058797  .00247106  39422-4  28005-3 0  9999,2 50205  53.2167 298.9139 0041518 204.0639 155.8457 16.06809986  4936,6633.746,89.619,283.153,228.069,0.0
50205.0,STARLINK-3260,PAYLOAD,2021-12-31 21:25:38,16.06212892,0.0038731,53.2168,298.5908,207.6692,152.2282,0.00014334,0.00117857,1.774e-05,0 STARLINK-3260,1 50205U 21125BB  21365.89280905  .00117857  17740-4  14334-3 0  9991,2 50205  53.2168 298.5908 0038731 207.6692 152.2282 16.06212892  5424,6635.39,89.652,282.954,231.555,0.0
50205.0,STARLINK-3260,PAYLOAD,2022-01-01 00:24:51,16.06135393,0.0039659,53.2168,297.9448,205.6732,154.2334,-0.00021587,-0.00186536,2.4815e-05,0 STARLINK-3260,1 50205U 21125BB  22001.01726270 -.00186536  24815-4 -21587-3 0  9994,2 50205  53.2168 297.9448 0039659 205.6732 154.2334 16.06135393  5441,6635.603,89.656,283.784,231.152,0.0
50205.0,STARLINK-3260,PAYLOAD,2022-01-03 21:13:44,16.01152994,0.0014664,53.2173,283.1146,240.7607,119.196,-0.00079058,-0.00453611,8.353700000000001e-05,0 STARLINK-3260,1 50205U 21125BB  22003.88453812 -.00453611  83537-4 -79058-3 0  9993,2 50205  53.2173 283.1146 0014664 240.7607 119.1960 16.01152994  5906,6649.361999999999,89.935,280.97700000000003,261.476,0.0
50205.0,STARLINK-3260,PAYLOAD,2022-01-04 21:12:55,15.99445962,0.0009367,53.2166,277.9704,258.5098,101.4882,-0.00077676,-0.00401287,6.7053e-05,0 STARLINK-3260,1 50205U 21125BB  22004.88397072 -.00401287  67053-4 -77676-3 0  9990,2 50205  53.2166 277.9704 0009367 258.5098 101.4882 15.99445962  6065,6654.092,90.031,282.19,269.724,0.0
50205.0,STARLINK-3260,PAYLOAD,2022-01-06 00:13:55,15.9758223,0.0002542,53.2162,272.1935,259.3292,100.7452,-0.00043931,-0.00205271,2.576e-05,0 STARLINK-3260,1 50205U 21125BB  22006.00967386 -.00205271  25760-4 -43931-3 0  9998,2 50205  53.2162 272.1935 0002542 259.3292 100.7452 15.97582230  5766,6659.266,90.136,282.824,279.438,0.0
50205.0,STARLINK-3260,PAYLOAD,2022-01-06 19:45:53,15.96082768,7.04e-05,53.2161,268.0259,35.472,324.6357,-0.00059006,-0.00252898,3.2826e-05,0 STARLINK-3260,1 50205U 21125BB  22006.82353670 -.00252898  32826-4 -59006-3 0  9991,2 50205  53.2161 268.0259 0000704  35.4720 324.6357 15.96082768  5890,6663.436,90.221,285.77,284.832,0.0
